     2.100          NAVIGATION                              RINEX VERSION / TYPE
fic2rin                                 12/19/2011 00:10:08 PGM / RUN BY / DATE
                                                            END OF HEADER
20 11 12 18 16  0  0.0  .582621432841D-04  .682121026330D-12  .000000000000D+00
     .530000000000D+02  .778125000000D+02  .533700802209D-08  .756267635983D+00
     .405125319958D-05  .500614254270D-02  .676698982716D-05  .515381308746D+04
     .576000000000D+05 -.745058059692D-07  .266083215457D+01  .782310962677D-07
     .931566982338D+00  .232593750000D+03  .125948996060D+01 -.864035990567D-08
     .285726187357D-11  .100000000000D+01  .166700000000D+04  .000000000000D+00
     .240000000000D+01  .000000000000D+00 -.791624188423D-08  .530000000000D+02
     .504060000000D+05  .400000000000D+01
21 11 12 18 16  0  0.0 -.191708095372D-03 -.250111042988D-11  .000000000000D+00
     .830000000000D+02  .184375000000D+01  .525521890096D-08  .136959659662D+01
     .325962901115D-06  .183039411204D-01  .121053308249D-04  .515368473434D+04
     .576000000000D+05 -.335276126862D-06  .166227506516D+01  .154599547386D-06
     .931093125617D+00  .136500000000D+03 -.231021603704D+01 -.857249993617D-08
    -.238224208709D-09  .100000000000D+01  .166700000000D+04  .000000000000D+00
     .240000000000D+01  .000000000000D+00 -.111758708954D-07  .830000000000D+02
     .504060000000D+05  .400000000000D+01
22 11 12 18 16  0  0.0  .143094919622D-03  .113686837722D-12  .000000000000D+00
     .540000000000D+02  .767812500000D+02  .551808699333D-08 -.567314323673D+00
     .396557152271D-05  .574049050920D-02  .644102692604D-05  .515369863892D+04
     .576000000000D+05 -.130385160446D-06  .271835825837D+01  .130385160446D-07
     .928974862663D+00  .236812500000D+03 -.197713051451D+01 -.876072206210D-08
    -.857178562071D-11  .100000000000D+01  .166700000000D+04  .000000000000D+00
     .340000000000D+01  .000000000000D+00 -.167638063431D-07  .540000000000D+02
     .504060000000D+05  .400000000000D+01
23 11 12 18 16  0  0.0  .249753240496D-03 -.329691829393D-11  .000000000000D+00
     .770000000000D+02 -.130312500000D+02  .455697553061D-08 -.241670445680D+01
    -.784173607826D-06  .751657143701D-02  .508315861225D-05  .515369885254D+04
     .576000000000D+05 -.115483999252D-06 -.252108436249D+01 -.143423676491D-06
     .962255208832D+00  .282593750000D+03 -.302968721056D+01 -.823427156189D-08
    -.241081470582D-09  .100000000000D+01  .166700000000D+04  .000000000000D+00
     .240000000000D+01  .000000000000D+00 -.204890966415D-07  .770000000000D+02
     .504060000000D+05  .400000000000D+01
25 11 12 18 16  0  0.0  .302544794977D-04  .568434188608D-12  .000000000000D+00
     .570000000000D+02 -.287500000000D+01  .451697386438D-08  .776694672725D+00
    -.350177288055D-06  .103531801142D-02  .720471143723D-05  .515378703499D+04
     .576000000000D+05  .335276126862D-07 -.450269817671D+00 -.745058059692D-08
     .966861362937D+00  .243343750000D+03  .823811609689D+00 -.815426822943D-08
     .431089385175D-09  .100000000000D+01  .166700000000D+04  .000000000000D+00
     .240000000000D+01  .000000000000D+00  .512227416039D-08  .570000000000D+02
     .504060000000D+05  .400000000000D+01
28 11 12 18 16  0  0.0  .942992046475D-04  .352429196937D-11  .000000000000D+00
     .120000000000D+02  .178125000000D+01  .443339895458D-08 -.543141214549D+00
     .273808836937D-06  .176637280965D-01  .691227614880D-05  .515370183945D+04
     .576000000000D+05 -.111758708954D-06 -.393078986895D+00  .232830643654D-06
     .977291140830D+00  .260656250000D+03 -.186459449088D+01 -.836427697714D-08
     .447161483213D-09  .100000000000D+01  .166700000000D+04  .000000000000D+00
     .240000000000D+01  .000000000000D+00 -.107102096081D-07  .120000000000D+02
     .504060000000D+05  .400000000000D+01
29 11 12 18 16  0  0.0  .267174560577D-03  .329691829393D-11  .000000000000D+00
     .820000000000D+02 -.500625000000D+02  .485234497679D-08  .160296482889D+01
    -.256672501564D-05  .211517373100D-02  .755675137043D-05  .515366358757D+04
     .576000000000D+05  .108033418655D-06  .649552545842D+00 -.316649675369D-07
     .962614285000D+00  .238125000000D+03 -.118527415881D+01 -.816819738106D-08
    -.105361531588D-09  .100000000000D+01  .166700000000D+04  .000000000000D+00
     .240000000000D+01  .000000000000D+00 -.931322574615D-08  .820000000000D+02
     .504060000000D+05  .400000000000D+01
31 11 12 18 16  0  0.0  .184125732630D-03  .488853402203D-11  .000000000000D+00
     .470000000000D+02 -.402500000000D+02  .381730186309D-08  .227023093397D+01
    -.187568366528D-05  .797075114679D-02  .886060297489D-05  .515355072784D+04
     .576000000000D+05  .614672899246D-07 -.147162151142D+01  .502914190292D-07
     .980376252195D+00  .217437500000D+03 -.944821415124D+00 -.767103381506D-08
    -.135719938995D-10  .100000000000D+01  .166700000000D+04  .000000000000D+00
     .240000000000D+01  .000000000000D+00 -.130385160446D-07  .470000000000D+02
     .504060000000D+05  .400000000000D+01
11 11 12 18 15 59 44.0 -.214339699596D-03 -.363797880709D-11  .000000000000D+00
     .900000000000D+01 -.186875000000D+02  .617275712011D-08  .244544461184D+01
    -.108219683170D-05  .126951049315D-01  .981055200100D-05  .515367619133D+04
     .575840000000D+05 -.372529029846D-08  .139015402618D+01 -.206753611565D-06
     .887592235414D+00  .149875000000D+03  .101288542988D+01 -.859250076929D-08
    -.156792245312D-09  .100000000000D+01  .166700000000D+04  .000000000000D+00
     .240000000000D+01  .000000000000D+00 -.116415321827D-07  .900000000000D+01
     .511860000000D+05  .400000000000D+01
10 11 12 18 15 59 44.0 -.225827097893D-04 -.125055521494D-11  .000000000000D+00
     .640000000000D+02  .739687500000D+02  .514664294977D-08 -.193402214424D+00
     .395253300667D-05  .109724689974D-01  .571087002754D-05  .515365355873D+04
     .575840000000D+05  .894069671631D-07  .272335085545D+01  .134110450745D-06
     .947423773763D+00  .259843750000D+03  .724799504454D+00 -.864286000981D-08
     .175007289756D-10  .100000000000D+01  .166700000000D+04  .000000000000D+00
     .240000000000D+01  .000000000000D+00 -.279396772385D-08  .640000000000D+02
     .545160000000D+05  .400000000000D+01
12 11 12 18 15 59 44.0  .413563102484D-04  .227373675443D-11  .000000000000D+00
     .140000000000D+02 -.259375000000D+01  .427410660512D-08  .212447872337D+01
    -.258907675743D-06  .365699175745D-02  .692903995514D-05  .515360004616D+04
     .575840000000D+05  .223517417908D-07 -.418046890634D+00  .670552253723D-07
     .978045346783D+00  .251968750000D+03 -.757079065439D-01 -.801033366255D-08
     .407159816984D-09  .100000000000D+01  .166700000000D+04  .000000000000D+00
     .240000000000D+01  .000000000000D+00 -.121071934700D-07  .140000000000D+02
     .552660000000D+05  .400000000000D+01
 7 11 12 18 15 59 44.0  .441190786660D-04  .238742359215D-11  .000000000000D+00
     .400000000000D+01 -.216250000000D+02  .401088135502D-08  .225497944245D+01
    -.110827386379D-05  .508688460104D-02  .942870974541D-05  .515362961960D+04
     .575840000000D+05 -.800937414169D-07 -.147381938638D+01  .316649675369D-07
     .975275086111D+00  .206656250000D+03 -.300800271527D+01 -.784961268216D-08
     .285726187357D-11  .100000000000D+01  .166700000000D+04  .000000000000D+00
     .240000000000D+01  .000000000000D+00 -.111758708954D-07  .400000000000D+01
     .564360000000D+05  .400000000000D+01
 7 11 12 18 17 59 44.0  .441367737949D-04  .238742359215D-11  .000000000000D+00
     .500000000000D+01 -.318437500000D+02  .393552107311D-08 -.297818898171D+01
    -.165589153767D-05  .508535478730D-02  .894814729691D-05  .515363292122D+04
     .647840000000D+05 -.465661287308D-07 -.147387580089D+01 -.167638063431D-07
     .975275386009D+00  .215875000000D+03 -.300781707097D+01 -.779925344164D-08
     .167864135072D-10  .100000000000D+01  .166700000000D+04  .000000000000D+00
     .240000000000D+01  .000000000000D+00 -.111758708954D-07  .500000000000D+01
     .576060000000D+05  .400000000000D+01
10 11 12 18 17 59 44.0 -.225915573537D-04 -.125055521494D-11  .000000000000D+00
     .660000000000D+02  .824375000000D+02  .509342644737D-08  .856701500096D+00
     .455230474472D-05  .109741830966D-01  .642240047455D-05  .515365732002D+04
     .647840000000D+05 -.484287738800D-07  .272328944801D+01  .149011611938D-06
     .947423743042D+00  .247656250000D+03  .724892382197D+00 -.857285709391D-08
    -.732173355102D-10  .100000000000D+01  .166700000000D+04  .000000000000D+00
     .240000000000D+01  .000000000000D+00 -.279396772385D-08  .660000000000D+02
     .576060000000D+05  .400000000000D+01
11 11 12 18 17 59 44.0 -.214365776628D-03 -.363797880709D-11  .000000000000D+00
     .240000000000D+02 -.276250000000D+02  .620490131619D-08 -.278751706250D+01
    -.160373747349D-05  .126962380018D-01  .985153019428D-05  .515367399979D+04
     .647840000000D+05  .124797224998D-06  .139009186679D+01 -.162050127983D-06
     .887591154317D+00  .147875000000D+03  .101285429898D+01 -.861750181068D-08
    -.971469037013D-10  .100000000000D+01  .166700000000D+04  .000000000000D+00
     .240000000000D+01  .000000000000D+00 -.116415321827D-07  .240000000000D+02
     .576060000000D+05  .400000000000D+01
12 11 12 18 17 59 44.0  .413721427321D-04  .227373675443D-11  .000000000000D+00
     .150000000000D+02  .215625000000D+01  .420731810883D-08 -.310837007513D+01
     .193715095520D-06  .365744554438D-02  .702217221260D-05  .515359892654D+04
     .647840000000D+05 -.931322574615D-08 -.418104580808D+00  .111758708954D-07
     .978048591535D+00  .252218750000D+03 -.758198519612D-01 -.796390315710D-08
     .438232539859D-09  .100000000000D+01  .166700000000D+04  .000000000000D+00
     .240000000000D+01  .000000000000D+00 -.121071934700D-07  .150000000000D+02
     .576060000000D+05  .400000000000D+01
